{"fetched_at":"2026-07-19T07:04:47.356Z","source":"https://celestrak.org/NORAD/elements/gp.php?GROUP=kuiper&FORMAT=JSON","constellation":"kuiper","records":[{"OBJECT_NAME":"KUIPER-00549","OBJECT_ID":"2026-140AA","EPOCH":"2026-07-17T13:17:45.106656","CLASSIFICATION_TYPE":"U","MEAN_MOTION":15.37370033,"ECCENTRICITY":0.0007974,"INCLINATION":51.877,"RA_OF_ASC_NODE":251.994,"ARG_OF_PERICENTER":23.7391,"MEAN_ANOMALY":336.3962,"EPHEMERIS_TYPE":0,"NORAD_CAT_ID":69616,"ELEMENT_SET_NO":999,"REV_AT_EPOCH":590,"BSTAR":0.00031279,"MEAN_MOTION_DOT":0.0001127,"MEAN_MOTION_DDOT":0},{"OBJECT_NAME":"KUIPER-00550","OBJECT_ID":"2026-140AB","EPOCH":"2026-07-18T20:26:27.860640","CLASSIFICATION_TYPE":"U","MEAN_MOTION":15.31339739,"ECCENTRICITY":0.0008665,"INCLINATION":51.8787,"RA_OF_ASC_NODE":246.4253,"ARG_OF_PERICENTER":73.6434,"MEAN_ANOMALY":286.5503,"EPHEMERIS_TYPE":0,"NORAD_CAT_ID":69617,"ELEMENT_SET_NO":999,"REV_AT_EPOCH":609,"BSTAR":0.00023753,"MEAN_MOTION_DOT":0.0000694,"MEAN_MOTION_DDOT":0},{"OBJECT_NAME":"KUIPER-00551","OBJECT_ID":"2026-140AC","EPOCH":"2026-07-18T07:17:59.235648","CLASSIFICATION_TYPE":"U","MEAN_MOTION":15.38295521,"ECCENTRICITY":0.00122384,"INCLINATION":51.8761,"RA_OF_ASC_NODE":248.0313,"ARG_OF_PERICENTER":290.6143,"MEAN_ANOMALY":69.3531,"EPHEMERIS_TYPE":0,"NORAD_CAT_ID":69618,"ELEMENT_SET_NO":999,"REV_AT_EPOCH":602,"BSTAR":0.00054637188,"MEAN_MOTION_DOT":0.00020654,"MEAN_MOTION_DDOT":0},{"OBJECT_NAME":"KUIPER-00554","OBJECT_ID":"2026-140AD","EPOCH":"2026-07-18T19:55:34.201344","CLASSIFICATION_TYPE":"U","MEAN_MOTION":15.38036393,"ECCENTRICITY":0.0011209,"INCLINATION":51.8762,"RA_OF_ASC_NODE":245.5558,"ARG_OF_PERICENTER":305.7282,"MEAN_ANOMALY":54.2661,"EPHEMERIS_TYPE":0,"NORAD_CAT_ID":69619,"ELEMENT_SET_NO":999,"REV_AT_EPOCH":610,"BSTAR":0.00025648,"MEAN_MOTION_DOT":0.00009382,"MEAN_MOTION_DDOT":0},{"OBJECT_NAME":"KUIPER-00555","OBJECT_ID":"2026-140AE","EPOCH":"2026-07-18T19:51:51.704064","CLASSIFICATION_TYPE":"U","MEAN_MOTION":15.3795007,"ECCENTRICITY":0.0011667,"INCLINATION":51.8802,"RA_OF_ASC_NODE":245.5457,"ARG_OF_PERICENTER":293.4681,"MEAN_ANOMALY":66.5079,"EPHEMERIS_TYPE":0,"NORAD_CAT_ID":69620,"ELEMENT_SET_NO":999,"REV_AT_EPOCH":610,"BSTAR":0.00028148,"MEAN_MOTION_DOT":0.00010309,"MEAN_MOTION_DDOT":0},{"OBJECT_NAME":"KUIPER-00556","OBJECT_ID":"2026-140AF","EPOCH":"2026-07-18T12:01:11.451072","CLASSIFICATION_TYPE":"U","MEAN_MOTION":15.38311952,"ECCENTRICITY":0.00122682,"INCLINATION":51.8786,"RA_OF_ASC_NODE":247.1044,"ARG_OF_PERICENTER":278.7624,"MEAN_ANOMALY":81.1973,"EPHEMERIS_TYPE":0,"NORAD_CAT_ID":69621,"ELEMENT_SET_NO":999,"REV_AT_EPOCH":605,"BSTAR":0.00028537202,"MEAN_MOTION_DOT":0.00010587,"MEAN_MOTION_DDOT":0},{"OBJECT_NAME":"KUIPER-00557","OBJECT_ID":"2026-140AG","EPOCH":"2026-07-18T20:05:43.551168","CLASSIFICATION_TYPE":"U","MEAN_MOTION":15.37511877,"ECCENTRICITY":0.0009601,"INCLINATION":51.879,"RA_OF_ASC_NODE":245.6073,"ARG_OF_PERICENTER":314.3909,"MEAN_ANOMALY":45.6291,"EPHEMERIS_TYPE":0,"NORAD_CAT_ID":69622,"ELEMENT_SET_NO":999,"REV_AT_EPOCH":610,"BSTAR":0.00034769,"MEAN_MOTION_DOT":0.00012639,"MEAN_MOTION_DDOT":0},{"OBJECT_NAME":"KUIPER-00560","OBJECT_ID":"2026-140AH","EPOCH":"2026-07-18T20:00:01.999008","CLASSIFICATION_TYPE":"U","MEAN_MOTION":15.37048645,"ECCENTRICITY":0.0009319,"INCLINATION":51.8766,"RA_OF_ASC_NODE":245.5273,"ARG_OF_PERICENTER":325.9158,"MEAN_ANOMALY":57.6346,"EPHEMERIS_TYPE":0,"NORAD_CAT_ID":69623,"ELEMENT_SET_NO":999,"REV_AT_EPOCH":568,"BSTAR":-0.00048357,"MEAN_MOTION_DOT":-0.00018183,"MEAN_MOTION_DDOT":0},{"OBJECT_NAME":"KUIPER-00561","OBJECT_ID":"2026-140AJ","EPOCH":"2026-07-18T07:22:34.252032","CLASSIFICATION_TYPE":"U","MEAN_MOTION":15.3877592,"ECCENTRICITY":0.00083008,"INCLINATION":51.8804,"RA_OF_ASC_NODE":248.0629,"ARG_OF_PERICENTER":319.6567,"MEAN_ANOMALY":40.3804,"EPHEMERIS_TYPE":0,"NORAD_CAT_ID":69624,"ELEMENT_SET_NO":999,"REV_AT_EPOCH":602,"BSTAR":0.00036020626,"MEAN_MOTION_DOT":0.00013667,"MEAN_MOTION_DDOT":0},{"OBJECT_NAME":"KUIPER-00564","OBJECT_ID":"2026-140AK","EPOCH":"2026-07-18T12:14:22.030944","CLASSIFICATION_TYPE":"U","MEAN_MOTION":15.37192979,"ECCENTRICITY":0.00090698,"INCLINATION":51.8795,"RA_OF_ASC_NODE":247.1641,"ARG_OF_PERICENTER":313.9813,"MEAN_ANOMALY":46.0425,"EPHEMERIS_TYPE":0,"NORAD_CAT_ID":69625,"ELEMENT_SET_NO":999,"REV_AT_EPOCH":605,"BSTAR":0.00027492571,"MEAN_MOTION_DOT":0.00009801,"MEAN_MOTION_DDOT":0},{"OBJECT_NAME":"KUIPER-00567","OBJECT_ID":"2026-140AL","EPOCH":"2026-07-18T07:16:45.476832","CLASSIFICATION_TYPE":"U","MEAN_MOTION":15.38343042,"ECCENTRICITY":0.00129011,"INCLINATION":51.8757,"RA_OF_ASC_NODE":248.0212,"ARG_OF_PERICENTER":281.0289,"MEAN_ANOMALY":78.9247,"EPHEMERIS_TYPE":0,"NORAD_CAT_ID":69626,"ELEMENT_SET_NO":999,"REV_AT_EPOCH":602,"BSTAR":0.00036599903,"MEAN_MOTION_DOT":0.00013715,"MEAN_MOTION_DDOT":0},{"OBJECT_NAME":"KUIPER-00573","OBJECT_ID":"2026-140AM","EPOCH":"2026-07-18T12:23:14.492544","CLASSIFICATION_TYPE":"U","MEAN_MOTION":15.37536812,"ECCENTRICITY":0.00094488,"INCLINATION":51.8768,"RA_OF_ASC_NODE":247.196,"ARG_OF_PERICENTER":299.2745,"MEAN_ANOMALY":60.7297,"EPHEMERIS_TYPE":0,"NORAD_CAT_ID":69627,"ELEMENT_SET_NO":999,"REV_AT_EPOCH":605,"BSTAR":0.00022775924,"MEAN_MOTION_DOT":0.00008143,"MEAN_MOTION_DDOT":0},{"OBJECT_NAME":"KUIPER-00258","OBJECT_ID":"2026-151A","EPOCH":"2026-07-18T09:24:29.521440","CLASSIFICATION_TYPE":"U","MEAN_MOTION":15.34753877,"ECCENTRICITY":0.0011375,"INCLINATION":51.867,"RA_OF_ASC_NODE":165.1525,"ARG_OF_PERICENTER":179.1617,"MEAN_ANOMALY":180.9389,"EPHEMERIS_TYPE":0,"NORAD_CAT_ID":69763,"ELEMENT_SET_NO":999,"REV_AT_EPOCH":250,"BSTAR":0.00010179759,"MEAN_MOTION_DOT":0.00003104,"MEAN_MOTION_DDOT":0},{"OBJECT_NAME":"KUIPER-00526","OBJECT_ID":"2026-151B","EPOCH":"2026-07-18T21:25:02.280864","CLASSIFICATION_TYPE":"U","MEAN_MOTION":15.37377542,"ECCENTRICITY":0.0006341,"INCLINATION":51.8764,"RA_OF_ASC_NODE":162.5164,"ARG_OF_PERICENTER":150.6832,"MEAN_ANOMALY":209.4512,"EPHEMERIS_TYPE":0,"NORAD_CAT_ID":69764,"ELEMENT_SET_NO":999,"REV_AT_EPOCH":258,"BSTAR":0.00041909,"MEAN_MOTION_DOT":0.00015242,"MEAN_MOTION_DDOT":0},{"OBJECT_NAME":"KUIPER-00558","OBJECT_ID":"2026-151C","EPOCH":"2026-07-18T20:00:01.999008","CLASSIFICATION_TYPE":"U","MEAN_MOTION":15.33842795,"ECCENTRICITY":0.0006992,"INCLINATION":51.8783,"RA_OF_ASC_NODE":162.9132,"ARG_OF_PERICENTER":167.5006,"MEAN_ANOMALY":169.3699,"EPHEMERIS_TYPE":0,"NORAD_CAT_ID":69765,"ELEMENT_SET_NO":999,"REV_AT_EPOCH":318,"BSTAR":-0.032253,"MEAN_MOTION_DOT":-0.00991246,"MEAN_MOTION_DDOT":0},{"OBJECT_NAME":"KUIPER-00569","OBJECT_ID":"2026-151D","EPOCH":"2026-07-18T20:00:01.999008","CLASSIFICATION_TYPE":"U","MEAN_MOTION":15.3750106,"ECCENTRICITY":0.0005146,"INCLINATION":51.8798,"RA_OF_ASC_NODE":162.7805,"ARG_OF_PERICENTER":149.7461,"MEAN_ANOMALY":253.6972,"EPHEMERIS_TYPE":0,"NORAD_CAT_ID":69766,"ELEMENT_SET_NO":999,"REV_AT_EPOCH":167,"BSTAR":0.0013124,"MEAN_MOTION_DOT":0.00048975,"MEAN_MOTION_DDOT":0}]}
