KUIPER-00549            
1 69616U 26140AA  26198.55399429  .00011270  00000+0  31279-3 0  9998
2 69616  51.8770 251.9940 0007974  23.7391 336.3962 15.37370033  5908
KUIPER-00550            
1 69617U 26140AB  26199.85171135  .00006940  00000+0  23753-3 0  9991
2 69617  51.8787 246.4253 0008665  73.6434 286.5503 15.31339739  6093
KUIPER-00551            
1 69618U 26140AC  26199.30415782  .00020654  00000+0  54637-3 0  9994
2 69618  51.8761 248.0313 0012238 290.6143  69.3531 15.38295521  6028
KUIPER-00554            
1 69619U 26140AD  26199.83025696  .00009382  00000+0  25648-3 0  9999
2 69619  51.8762 245.5558 0011209 305.7282  54.2661 15.38036393  6108
KUIPER-00555            
1 69620U 26140AE  26199.82768176  .00010309  00000+0  28148-3 0  9996
2 69620  51.8802 245.5457 0011667 293.4681  66.5079 15.37950070  6102
KUIPER-00556            
1 69621U 26140AF  26199.50082698  .00010587  00000+0  28537-3 0  9990
2 69621  51.8786 247.1044 0012268 278.7624  81.1973 15.38311952  6056
KUIPER-00557            
1 69622U 26140AG  26199.83730962  .00012639  00000+0  34769-3 0  9995
2 69622  51.8790 245.6073 0009601 314.3909  45.6291 15.37511877  6108
KUIPER-00560            
1 69623U 26140AH  26199.83335647 -.00018183  00000+0 -48357-3 0  9997
2 69623  51.8766 245.5273 0009319 325.9158  57.6346 15.37048645  5687
KUIPER-00561            
1 69624U 26140AJ  26199.30734088  .00013667  00000+0  36021-3 0  9997
2 69624  51.8804 248.0629 0008300 319.6567  40.3804 15.38775920  6028
KUIPER-00564            
1 69625U 26140AK  26199.50997721  .00009801  00000+0  27493-3 0  9993
2 69625  51.8795 247.1641 0009069 313.9813  46.0425 15.37192979  6057
KUIPER-00567            
1 69626U 26140AL  26199.30330413  .00013715  00000+0  36600-3 0  9990
2 69626  51.8757 248.0212 0012901 281.0289  78.9247 15.38343042  6024
KUIPER-00573            
1 69627U 26140AM  26199.51613996  .00008143  00000+0  22776-3 0  9992
2 69627  51.8768 247.1960 0009448 299.2745  60.7297 15.37536812  6052
KUIPER-00258            
1 69763U 26151A   26199.39200835  .00003104  00000+0  10180-3 0  9993
2 69763  51.8670 165.1525 0011375 179.1617 180.9389 15.34753877  2509
KUIPER-00526            
1 69764U 26151B   26199.89238751  .00015242  00000+0  41909-3 0  9996
2 69764  51.8764 162.5164 0006341 150.6832 209.4512 15.37377542  2581
KUIPER-00558            
1 69765U 26151C   26199.83335647 -.00991246  00000+0 -32253-1 0  9992
2 69765  51.8783 162.9132 0006992 167.5006 169.3699 15.33842795  3184
KUIPER-00569            
1 69766U 26151D   26199.83335647  .00048975  00000+0  13124-2 0  9990
2 69766  51.8798 162.7805 0005146 149.7461 253.6972 15.37501060  1677
